{"fetched_at":"2026-07-18T06:27:45.816Z","source":"https://celestrak.org/NORAD/elements/gp.php?GROUP=oneweb&FORMAT=JSON","constellation":"oneweb","records":[{"OBJECT_NAME":"ONEWEB-0645","OBJECT_ID":"2023-029P","EPOCH":"2026-07-17T19:42:51.870816","CLASSIFICATION_TYPE":"U","MEAN_MOTION":13.19725788,"ECCENTRICITY":0.00021158,"INCLINATION":87.9187,"RA_OF_ASC_NODE":298.8747,"ARG_OF_PERICENTER":114.5204,"MEAN_ANOMALY":245.615,"EPHEMERIS_TYPE":0,"NORAD_CAT_ID":55809,"ELEMENT_SET_NO":999,"REV_AT_EPOCH":16294,"BSTAR":-0.00017611763,"MEAN_MOTION_DOT":-5.8e-7,"MEAN_MOTION_DDOT":0},{"OBJECT_NAME":"ONEWEB-0646","OBJECT_ID":"2023-029Q","EPOCH":"2026-07-17T12:51:09.756576","CLASSIFICATION_TYPE":"U","MEAN_MOTION":13.19727476,"ECCENTRICITY":0.0002293,"INCLINATION":87.9186,"RA_OF_ASC_NODE":298.9323,"ARG_OF_PERICENTER":104.1967,"MEAN_ANOMALY":255.942,"EPHEMERIS_TYPE":0,"NORAD_CAT_ID":55810,"ELEMENT_SET_NO":999,"REV_AT_EPOCH":16289,"BSTAR":0.00022763,"MEAN_MOTION_DOT":0.00000104,"MEAN_MOTION_DDOT":0},{"OBJECT_NAME":"ONEWEB-0648","OBJECT_ID":"2023-029R","EPOCH":"2026-07-17T22:33:43.569504","CLASSIFICATION_TYPE":"U","MEAN_MOTION":13.14503876,"ECCENTRICITY":0.00024711,"INCLINATION":87.8969,"RA_OF_ASC_NODE":283.5766,"ARG_OF_PERICENTER":121.2349,"MEAN_ANOMALY":238.9023,"EPHEMERIS_TYPE":0,"NORAD_CAT_ID":55811,"ELEMENT_SET_NO":999,"REV_AT_EPOCH":16343,"BSTAR":0.00018329429,"MEAN_MOTION_DOT":8.1e-7,"MEAN_MOTION_DDOT":0},{"OBJECT_NAME":"ONEWEB-0649","OBJECT_ID":"2023-029S","EPOCH":"2026-07-17T18:55:04.538208","CLASSIFICATION_TYPE":"U","MEAN_MOTION":13.19726271,"ECCENTRICITY":0.00020846,"INCLINATION":87.9187,"RA_OF_ASC_NODE":298.88,"ARG_OF_PERICENTER":108.8709,"MEAN_ANOMALY":251.265,"EPHEMERIS_TYPE":0,"NORAD_CAT_ID":55812,"ELEMENT_SET_NO":999,"REV_AT_EPOCH":16296,"BSTAR":0.00011533612,"MEAN_MOTION_DOT":5.9e-7,"MEAN_MOTION_DDOT":0},{"OBJECT_NAME":"ONEWEB-0650","OBJECT_ID":"2023-029T","EPOCH":"2026-07-17T18:48:15.656256","CLASSIFICATION_TYPE":"U","MEAN_MOTION":13.19725834,"ECCENTRICITY":0.00025425,"INCLINATION":87.9183,"RA_OF_ASC_NODE":298.8831,"ARG_OF_PERICENTER":110.5011,"MEAN_ANOMALY":249.6395,"EPHEMERIS_TYPE":0,"NORAD_CAT_ID":55813,"ELEMENT_SET_NO":999,"REV_AT_EPOCH":16293,"BSTAR":0.000089588892,"MEAN_MOTION_DOT":4.9e-7,"MEAN_MOTION_DDOT":0},{"OBJECT_NAME":"ONEWEB-0652","OBJECT_ID":"2023-029U","EPOCH":"2026-07-17T18:27:06.748704","CLASSIFICATION_TYPE":"U","MEAN_MOTION":13.1450277,"ECCENTRICITY":0.00019796,"INCLINATION":87.8965,"RA_OF_ASC_NODE":283.6174,"ARG_OF_PERICENTER":94.5185,"MEAN_ANOMALY":265.6171,"EPHEMERIS_TYPE":0,"NORAD_CAT_ID":55814,"ELEMENT_SET_NO":999,"REV_AT_EPOCH":16338,"BSTAR":0.00052434983,"MEAN_MOTION_DOT":0.00000207,"MEAN_MOTION_DDOT":0},{"OBJECT_NAME":"ONEWEB-0653","OBJECT_ID":"2023-029V","EPOCH":"2026-07-17T16:14:39.793344","CLASSIFICATION_TYPE":"U","MEAN_MOTION":13.14502181,"ECCENTRICITY":0.0001944,"INCLINATION":87.8967,"RA_OF_ASC_NODE":283.6341,"ARG_OF_PERICENTER":99.6258,"MEAN_ANOMALY":260.5091,"EPHEMERIS_TYPE":0,"NORAD_CAT_ID":55815,"ELEMENT_SET_NO":999,"REV_AT_EPOCH":16340,"BSTAR":0.00036025377,"MEAN_MOTION_DOT":0.00000146,"MEAN_MOTION_DDOT":0},{"OBJECT_NAME":"ONEWEB-0654","OBJECT_ID":"2023-029W","EPOCH":"2026-07-17T16:07:48.580320","CLASSIFICATION_TYPE":"U","MEAN_MOTION":13.14502274,"ECCENTRICITY":0.00017913,"INCLINATION":87.8965,"RA_OF_ASC_NODE":283.6309,"ARG_OF_PERICENTER":92.1463,"MEAN_ANOMALY":267.9872,"EPHEMERIS_TYPE":0,"NORAD_CAT_ID":55816,"ELEMENT_SET_NO":999,"REV_AT_EPOCH":16342,"BSTAR":0.00021962009,"MEAN_MOTION_DOT":9.4e-7,"MEAN_MOTION_DDOT":0},{"OBJECT_NAME":"ONEWEB-0656","OBJECT_ID":"2023-029X","EPOCH":"2026-07-17T03:04:48.011808","CLASSIFICATION_TYPE":"U","MEAN_MOTION":13.20770342,"ECCENTRICITY":0.00018386,"INCLINATION":87.9187,"RA_OF_ASC_NODE":268.4643,"ARG_OF_PERICENTER":87.2581,"MEAN_ANOMALY":272.8763,"EPHEMERIS_TYPE":0,"NORAD_CAT_ID":55817,"ELEMENT_SET_NO":999,"REV_AT_EPOCH":16510,"BSTAR":0.00013115048,"MEAN_MOTION_DOT":6.6e-7,"MEAN_MOTION_DDOT":0},{"OBJECT_NAME":"ONEWEB-0657","OBJECT_ID":"2023-029Y","EPOCH":"2026-07-17T18:41:28.621536","CLASSIFICATION_TYPE":"U","MEAN_MOTION":13.19726486,"ECCENTRICITY":0.00021324,"INCLINATION":87.9183,"RA_OF_ASC_NODE":298.8826,"ARG_OF_PERICENTER":78.9049,"MEAN_ANOMALY":281.2323,"EPHEMERIS_TYPE":0,"NORAD_CAT_ID":55818,"ELEMENT_SET_NO":999,"REV_AT_EPOCH":16294,"BSTAR":-0.000065010942,"MEAN_MOTION_DOT":-1.3e-7,"MEAN_MOTION_DDOT":0},{"OBJECT_NAME":"ONEWEB-0658","OBJECT_ID":"2023-029Z","EPOCH":"2026-07-17T18:34:37.858656","CLASSIFICATION_TYPE":"U","MEAN_MOTION":13.19726296,"ECCENTRICITY":0.00023847,"INCLINATION":87.9193,"RA_OF_ASC_NODE":298.8618,"ARG_OF_PERICENTER":106.3662,"MEAN_ANOMALY":253.7734,"EPHEMERIS_TYPE":0,"NORAD_CAT_ID":55819,"ELEMENT_SET_NO":999,"REV_AT_EPOCH":16295,"BSTAR":0.000002730408,"MEAN_MOTION_DOT":1.4e-7,"MEAN_MOTION_DDOT":0},{"OBJECT_NAME":"ONEWEB-0660","OBJECT_ID":"2023-029AA","EPOCH":"2026-07-17T11:56:37.080960","CLASSIFICATION_TYPE":"U","MEAN_MOTION":13.14502362,"ECCENTRICITY":0.0002001,"INCLINATION":87.8975,"RA_OF_ASC_NODE":283.6616,"ARG_OF_PERICENTER":109.0536,"MEAN_ANOMALY":251.081,"EPHEMERIS_TYPE":0,"NORAD_CAT_ID":55820,"ELEMENT_SET_NO":999,"REV_AT_EPOCH":16338,"BSTAR":-0.00046498,"MEAN_MOTION_DOT":-0.0000016,"MEAN_MOTION_DDOT":0},{"OBJECT_NAME":"ONEWEB-0661","OBJECT_ID":"2023-029AB","EPOCH":"2026-07-17T16:26:05.385120","CLASSIFICATION_TYPE":"U","MEAN_MOTION":13.14502726,"ECCENTRICITY":0.00018508,"INCLINATION":87.8956,"RA_OF_ASC_NODE":283.664,"ARG_OF_PERICENTER":107.6414,"MEAN_ANOMALY":252.4918,"EPHEMERIS_TYPE":0,"NORAD_CAT_ID":55821,"ELEMENT_SET_NO":999,"REV_AT_EPOCH":16339,"BSTAR":0.0005301539,"MEAN_MOTION_DOT":0.00000209,"MEAN_MOTION_DDOT":0},{"OBJECT_NAME":"ONEWEB-0662","OBJECT_ID":"2023-029AC","EPOCH":"2026-07-17T19:05:56.117760","CLASSIFICATION_TYPE":"U","MEAN_MOTION":13.14502608,"ECCENTRICITY":0.00019884,"INCLINATION":87.8958,"RA_OF_ASC_NODE":283.6471,"ARG_OF_PERICENTER":108.3882,"MEAN_ANOMALY":251.7464,"EPHEMERIS_TYPE":0,"NORAD_CAT_ID":55822,"ELEMENT_SET_NO":999,"REV_AT_EPOCH":16345,"BSTAR":-0.00045436575,"MEAN_MOTION_DOT":-0.00000156,"MEAN_MOTION_DDOT":0},{"OBJECT_NAME":"ONEWEB-0663","OBJECT_ID":"2023-029AD","EPOCH":"2026-07-17T14:44:35.950272","CLASSIFICATION_TYPE":"U","MEAN_MOTION":13.20871507,"ECCENTRICITY":0.0002221,"INCLINATION":87.9185,"RA_OF_ASC_NODE":268.4384,"ARG_OF_PERICENTER":109.6423,"MEAN_ANOMALY":250.495,"EPHEMERIS_TYPE":0,"NORAD_CAT_ID":55823,"ELEMENT_SET_NO":999,"REV_AT_EPOCH":16516,"BSTAR":0.000094566,"MEAN_MOTION_DOT":5.1e-7,"MEAN_MOTION_DDOT":0},{"OBJECT_NAME":"ONEWEB-0664","OBJECT_ID":"2023-029AE","EPOCH":"2026-07-17T22:45:24.609600","CLASSIFICATION_TYPE":"U","MEAN_MOTION":13.20771446,"ECCENTRICITY":0.00016266,"INCLINATION":87.9173,"RA_OF_ASC_NODE":268.3496,"ARG_OF_PERICENTER":104.4755,"MEAN_ANOMALY":255.6558,"EPHEMERIS_TYPE":0,"NORAD_CAT_ID":55824,"ELEMENT_SET_NO":999,"REV_AT_EPOCH":16520,"BSTAR":-0.00027809688,"MEAN_MOTION_DOT":-0.000001,"MEAN_MOTION_DDOT":0},{"OBJECT_NAME":"ONEWEB-0665","OBJECT_ID":"2023-029AF","EPOCH":"2026-07-17T16:21:31.484160","CLASSIFICATION_TYPE":"U","MEAN_MOTION":13.1450257,"ECCENTRICITY":0.00020692,"INCLINATION":87.8956,"RA_OF_ASC_NODE":283.6455,"ARG_OF_PERICENTER":109.4476,"MEAN_ANOMALY":250.6877,"EPHEMERIS_TYPE":0,"NORAD_CAT_ID":55825,"ELEMENT_SET_NO":999,"REV_AT_EPOCH":16341,"BSTAR":0.00043938124,"MEAN_MOTION_DOT":0.00000176,"MEAN_MOTION_DDOT":0},{"OBJECT_NAME":"ONEWEB-0666","OBJECT_ID":"2023-029AG","EPOCH":"2026-07-17T15:19:19.310016","CLASSIFICATION_TYPE":"U","MEAN_MOTION":13.20773279,"ECCENTRICITY":0.00024393,"INCLINATION":87.9173,"RA_OF_ASC_NODE":268.4017,"ARG_OF_PERICENTER":83.0148,"MEAN_ANOMALY":277.1263,"EPHEMERIS_TYPE":0,"NORAD_CAT_ID":55826,"ELEMENT_SET_NO":999,"REV_AT_EPOCH":16517,"BSTAR":-0.00017564276,"MEAN_MOTION_DOT":-5.8e-7,"MEAN_MOTION_DDOT":0},{"OBJECT_NAME":"ONEWEB-0667","OBJECT_ID":"2023-029AH","EPOCH":"2026-07-17T15:12:02.821536","CLASSIFICATION_TYPE":"U","MEAN_MOTION":13.20773429,"ECCENTRICITY":0.00020003,"INCLINATION":87.9187,"RA_OF_ASC_NODE":268.3652,"ARG_OF_PERICENTER":103.5467,"MEAN_ANOMALY":256.5889,"EPHEMERIS_TYPE":0,"NORAD_CAT_ID":55827,"ELEMENT_SET_NO":999,"REV_AT_EPOCH":16516,"BSTAR":-0.000058290081,"MEAN_MOTION_DOT":-1.1e-7,"MEAN_MOTION_DDOT":0},{"OBJECT_NAME":"ONEWEB-0669","OBJECT_ID":"2023-029AJ","EPOCH":"2026-07-17T22:21:08.625312","CLASSIFICATION_TYPE":"U","MEAN_MOTION":13.20768958,"ECCENTRICITY":0.00016056,"INCLINATION":87.9183,"RA_OF_ASC_NODE":268.3148,"ARG_OF_PERICENTER":87.7718,"MEAN_ANOMALY":272.3599,"EPHEMERIS_TYPE":0,"NORAD_CAT_ID":55828,"ELEMENT_SET_NO":999,"REV_AT_EPOCH":16520,"BSTAR":-0.000015453183,"MEAN_MOTION_DOT":7e-8,"MEAN_MOTION_DDOT":0},{"OBJECT_NAME":"ONEWEB-0670","OBJECT_ID":"2023-029AK","EPOCH":"2026-07-17T15:49:33.273696","CLASSIFICATION_TYPE":"U","MEAN_MOTION":13.14501783,"ECCENTRICITY":0.00016924,"INCLINATION":87.8954,"RA_OF_ASC_NODE":283.6666,"ARG_OF_PERICENTER":107.8593,"MEAN_ANOMALY":252.2722,"EPHEMERIS_TYPE":0,"NORAD_CAT_ID":55829,"ELEMENT_SET_NO":999,"REV_AT_EPOCH":16343,"BSTAR":-0.00051129465,"MEAN_MOTION_DOT":-0.00000177,"MEAN_MOTION_DDOT":0},{"OBJECT_NAME":"ONEWEB-0671","OBJECT_ID":"2023-029AL","EPOCH":"2026-07-17T20:16:58.253952","CLASSIFICATION_TYPE":"U","MEAN_MOTION":13.19726007,"ECCENTRICITY":0.00019794,"INCLINATION":87.9185,"RA_OF_ASC_NODE":298.8711,"ARG_OF_PERICENTER":105.6437,"MEAN_ANOMALY":254.4914,"EPHEMERIS_TYPE":0,"NORAD_CAT_ID":55830,"ELEMENT_SET_NO":999,"REV_AT_EPOCH":16294,"BSTAR":0.000065984997,"MEAN_MOTION_DOT":3.9e-7,"MEAN_MOTION_DDOT":0},{"OBJECT_NAME":"ONEWEB-0672","OBJECT_ID":"2023-029AM","EPOCH":"2026-07-17T22:13:53.201280","CLASSIFICATION_TYPE":"U","MEAN_MOTION":13.2075457,"ECCENTRICITY":0.00019718,"INCLINATION":87.918,"RA_OF_ASC_NODE":268.3097,"ARG_OF_PERICENTER":89.1332,"MEAN_ANOMALY":271.0027,"EPHEMERIS_TYPE":0,"NORAD_CAT_ID":55831,"ELEMENT_SET_NO":999,"REV_AT_EPOCH":16520,"BSTAR":0.0078028138,"MEAN_MOTION_DOT":0.00003186,"MEAN_MOTION_DDOT":0}]}
